{
  "type": "FeatureCollection",
  "features": [
    {
      "type": "Feature",
      "properties": {
        "norad_id": 41859,
        "name": "GSAT0207 (GALILEO 15)",
        "group": "gnss",
        "lat": 54.700558889440835,
        "lon": -150.73568644052568,
        "alt_km": 23220.01123681647,
        "timestamp": "2025-12-04T03:47:54.788582+00:00",
        "meta_object_name": "GSAT0207 (GALILEO 15)",
        "meta_object_id": "2016-069A",
        "meta_epoch": "2025-12-03T09:54:53.472096",
        "meta_mean_motion": 1.70474233,
        "meta_eccentricity": 0.0002136,
        "meta_inclination": 55.3776,
        "meta_ra_of_asc_node": 106.5086,
        "meta_arg_of_pericenter": 326.0085,
        "meta_mean_anomaly": 33.9336,
        "meta_ephemeris_type": 0,
        "meta_classification_type": "U",
        "meta_norad_cat_id": 41859,
        "meta_element_set_no": 999,
        "meta_rev_at_epoch": 5606,
        "meta_bstar": 0,
        "meta_mean_motion_dot": 2e-07,
        "meta_mean_motion_ddot": 0,
        "tle_line1": "1 41859U 16069A   25337.41311889  .00000020  00000+0  00000+0 0  9994",
        "tle_line2": "2 41859  55.3776 106.5086 0002136 326.0085  33.9336  1.70474233 56069"
      },
      "geometry": {
        "type": "Point",
        "coordinates": [
          -150.73568644052568,
          54.700558889440835
        ]
      }
    },
    {
      "type": "Feature",
      "properties": {
        "norad_id": 41860,
        "name": "GSAT0212 (GALILEO 16)",
        "group": "gnss",
        "lat": -5.918571524340781,
        "lon": -69.43169337472781,
        "alt_km": 23229.086963487836,
        "timestamp": "2025-12-04T03:47:54.788593+00:00",
        "meta_object_name": "GSAT0212 (GALILEO 16)",
        "meta_object_id": "2016-069B",
        "meta_epoch": "2025-12-02T16:19:30.905184",
        "meta_mean_motion": 1.70474418,
        "meta_eccentricity": 0.00022458,
        "meta_inclination": 55.3738,
        "meta_ra_of_asc_node": 106.5243,
        "meta_arg_of_pericenter": 34.2432,
        "meta_mean_anomaly": 325.7313,
        "meta_ephemeris_type": 0,
        "meta_classification_type": "U",
        "meta_norad_cat_id": 41860,
        "meta_element_set_no": 999,
        "meta_rev_at_epoch": 5630,
        "meta_bstar": 0,
        "meta_mean_motion_dot": 2.7e-07,
        "meta_mean_motion_ddot": 0,
        "tle_line1": "1 41860U 16069B   25336.68021881  .00000027  00000+0  00000+0 0  9991",
        "tle_line2": "2 41860  55.3738 106.5243 0002245  34.2432 325.7313  1.70474418 56308"
      },
      "geometry": {
        "type": "Point",
        "coordinates": [
          -69.43169337472781,
          -5.918571524340781
        ]
      }
    },
    {
      "type": "Feature",
      "properties": {
        "norad_id": 41861,
        "name": "GSAT0213 (GALILEO 17)",
        "group": "gnss",
        "lat": -30.79089891193755,
        "lon": 82.17464813627268,
        "alt_km": 23221.159041732746,
        "timestamp": "2025-12-04T03:47:54.788604+00:00",
        "meta_object_name": "GSAT0213 (GALILEO 17)",
        "meta_object_id": "2016-069C",
        "meta_epoch": "2025-12-01T20:59:28.954752",
        "meta_mean_motion": 1.70474717,
        "meta_eccentricity": 0.00020626,
        "meta_inclination": 55.3756,
        "meta_ra_of_asc_node": 106.5542,
        "meta_arg_of_pericenter": 284.0381,
        "meta_mean_anomaly": 75.9044,
        "meta_ephemeris_type": 0,
        "meta_classification_type": "U",
        "meta_norad_cat_id": 41861,
        "meta_element_set_no": 999,
        "meta_rev_at_epoch": 5615,
        "meta_bstar": 0,
        "meta_mean_motion_dot": 3.5e-07,
        "meta_mean_motion_ddot": 0,
        "tle_line1": "1 41861U 16069C   25335.87464068  .00000035  00000+0  00000+0 0  9999",
        "tle_line2": "2 41861  55.3756 106.5542 0002062 284.0381  75.9044  1.70474717 56156"
      },
      "geometry": {
        "type": "Point",
        "coordinates": [
          82.17464813627268,
          -30.79089891193755
        ]
      }
    },
    {
      "type": "Feature",
      "properties": {
        "norad_id": 41862,
        "name": "GSAT0214 (GALILEO 18)",
        "group": "gnss",
        "lat": -40.391639982233855,
        "lon": -37.556847140244855,
        "alt_km": 23225.26098224193,
        "timestamp": "2025-12-04T03:47:54.788615+00:00",
        "meta_object_name": "GSAT0214 (GALILEO 18)",
        "meta_object_id": "2016-069D",
        "meta_epoch": "2025-12-02T14:34:22.700352",
        "meta_mean_motion": 1.70474512,
        "meta_eccentricity": 0.0001109,
        "meta_inclination": 55.3745,
        "meta_ra_of_asc_node": 106.5268,
        "meta_arg_of_pericenter": 291.2976,
        "meta_mean_anomaly": 68.6511,
        "meta_ephemeris_type": 0,
        "meta_classification_type": "U",
        "meta_norad_cat_id": 41862,
        "meta_element_set_no": 999,
        "meta_rev_at_epoch": 5629,
        "meta_bstar": 0,
        "meta_mean_motion_dot": 2.8e-07,
        "meta_mean_motion_ddot": 0,
        "tle_line1": "1 41862U 16069D   25336.60720718  .00000028  00000+0  00000+0 0  9991",
        "tle_line2": "2 41862  55.3745 106.5268 0001109 291.2976  68.6511  1.70474512 56297"
      },
      "geometry": {
        "type": "Point",
        "coordinates": [
          -37.556847140244855,
          -40.391639982233855
        ]
      }
    },
    {
      "type": "Feature",
      "properties": {
        "norad_id": 42709,
        "name": "SES-15 (WAAS/PRN 133)",
        "group": "gnss",
        "lat": 0.019210525250740386,
        "lon": 0.9965577775335956,
        "alt_km": 35787.26918563074,
        "timestamp": "2025-12-04T03:47:54.788626+00:00",
        "meta_object_name": "SES-15 (WAAS/PRN 133)",
        "meta_object_id": "2017-026A",
        "meta_epoch": "2025-12-02T12:16:38.557632",
        "meta_mean_motion": 1.00268611,
        "meta_eccentricity": 3.415e-05,
        "meta_inclination": 0.02,
        "meta_ra_of_asc_node": 343.4979,
        "meta_arg_of_pericenter": 269.9972,
        "meta_mean_anomaly": 233.0968,
        "meta_ephemeris_type": 0,
        "meta_classification_type": "U",
        "meta_norad_cat_id": 42709,
        "meta_element_set_no": 999,
        "meta_rev_at_epoch": 546,
        "meta_bstar": 0,
        "meta_mean_motion_dot": 8.1e-07,
        "meta_mean_motion_ddot": 0,
        "tle_line1": "1 42709U 17026A   25336.51155738  .00000081  00000+0  00000+0 0  9999",
        "tle_line2": "2 42709   0.0200 343.4979 0000341 269.9972 233.0968  1.00268611  5468"
      },
      "geometry": {
        "type": "Point",
        "coordinates": [
          0.9965577775335956,
          0.019210525250740386
        ]
      }
    },
    {
      "type": "Feature",
      "properties": {
        "norad_id": 42738,
        "name": "QZS-2 (QZSS/PRN 194)",
        "group": "gnss",
        "lat": 20.41118524764793,
        "lon": -87.43160685647447,
        "alt_km": 37369.03637344275,
        "timestamp": "2025-12-04T03:47:54.788639+00:00",
        "meta_object_name": "QZS-2 (QZSS/PRN 194)",
        "meta_object_id": "2017-028A",
        "meta_epoch": "2025-12-03T14:23:28.547808",
        "meta_mean_motion": 1.00285452,
        "meta_eccentricity": 0.0759039,
        "meta_inclination": 39.729,
        "meta_ra_of_asc_node": 246.0173,
        "meta_arg_of_pericenter": 269.3809,
        "meta_mean_anomaly": 274.5986,
        "meta_ephemeris_type": 0,
        "meta_classification_type": "U",
        "meta_norad_cat_id": 42738,
        "meta_element_set_no": 999,
        "meta_rev_at_epoch": 566,
        "meta_bstar": 0,
        "meta_mean_motion_dot": -1.52e-06,
        "meta_mean_motion_ddot": 0,
        "tle_line1": "1 42738U 17028A   25337.59963597 -.00000152  00000+0  00000+0 0  9992",
        "tle_line2": "2 42738  39.7290 246.0173 0759039 269.3809 274.5986  1.00285452  5664"
      },
      "geometry": {
        "type": "Point",
        "coordinates": [
          -87.43160685647447,
          20.41118524764793
        ]
      }
    },
    {
      "type": "Feature",
      "properties": {
        "norad_id": 42917,
        "name": "QZS-3 (QZSS/PRN 199)",
        "group": "gnss",
        "lat": 0.015961955497775862,
        "lon": -102.82340257912286,
        "alt_km": 35775.825432418314,
        "timestamp": "2025-12-04T03:47:54.788653+00:00",
        "meta_object_name": "QZS-3 (QZSS/PRN 199)",
        "meta_object_id": "2017-048A",
        "meta_epoch": "2025-12-03T17:35:49.983360",
        "meta_mean_motion": 1.00275829,
        "meta_eccentricity": 0.0002168,
        "meta_inclination": 0.0732,
        "meta_ra_of_asc_node": 221.3034,
        "meta_arg_of_pericenter": 34.3897,
        "meta_mean_anomaly": 208.0607,
        "meta_ephemeris_type": 0,
        "meta_classification_type": "U",
        "meta_norad_cat_id": 42917,
        "meta_element_set_no": 999,
        "meta_rev_at_epoch": 3029,
        "meta_bstar": 0,
        "meta_mean_motion_dot": -3.3e-06,
        "meta_mean_motion_ddot": 0,
        "tle_line1": "1 42917U 17048A   25337.73321740 -.00000330  00000+0  00000+0 0  9995",
        "tle_line2": "2 42917   0.0732 221.3034 0002168  34.3897 208.0607  1.00275829 30294"
      },
      "geometry": {
        "type": "Point",
        "coordinates": [
          -102.82340257912286,
          0.015961955497775862
        ]
      }
    }
  ]
}